{
  "properties": {
    "path": "brands/amenity/atm",
    "skipCollection": true,
    "exclude": {"generic": ["^atm$"]}
  },
  "items": [
    {
      "templateSource": "brands/amenity/bank",
      "templateTags": {
        "amenity": "atm",
        "operator": "{source.tags.brand}",
        "operator:wikidata": "{source.tags.brand:wikidata}"
      }
    },
    {
      "displayName": "Allpoint",
      "id": "allpoint-a81297",
      "locationSet": {
        "include": ["au", "ca", "gb", "mx", "us"]
      },
      "tags": {
        "amenity": "atm",
        "brand": "Allpoint",
        "brand:wikidata": "Q4733264",
        "name": "Allpoint"
      }
    },
    {
      "displayName": "American Crypto ATM",
      "id": "americancryptoatm-93d3a2",
      "locationSet": {"include": ["us"]},
      "matchTags": ["amenity/bank"],
      "tags": {
        "amenity": "atm",
        "brand": "American Crypto ATM",
        "name": "American Crypto ATM"
      }
    },
    {
      "displayName": "Banco24Horas",
      "id": "banco24horas-a02d2b",
      "locationSet": {"include": ["br"]},
      "matchNames": ["branco24horas"],
      "tags": {
        "amenity": "atm",
        "brand": "Banco24Horas",
        "brand:wikidata": "Q4854069",
        "name": "Banco24Horas"
      }
    },
    {
      "displayName": "Batopin",
      "id": "batopin-8a4913",
      "locationSet": {"include": ["bel"]},
      "tags": {
        "amenity": "atm",
        "brand": "Batopin",
        "brand:wikidata": "Q97142699",
        "operator": "Batopin",
        "operator:wikidata": "Q97142699"
      }
    },
    {
      "displayName": "Bitcoin Depot",
      "id": "bitcoindepot-93d3a2",
      "locationSet": {"include": ["us"]},
      "tags": {
        "amenity": "atm",
        "brand": "Bitcoin Depot",
        "brand:wikidata": "Q109824499",
        "name": "Bitcoin Depot"
      }
    },
    {
      "displayName": "Cardtronics",
      "id": "cardtronics-d0c754",
      "locationSet": {
        "include": [
          "au",
          "ca",
          "de",
          "es",
          "gb",
          "ie",
          "mx",
          "nz",
          "us",
          "za"
        ]
      },
      "tags": {
        "amenity": "atm",
        "brand": "Cardtronics",
        "brand:wikidata": "Q50239180",
        "name": "Cardtronics"
      }
    },
    {
      "displayName": "CO-OP Financial Services",
      "id": "coopfinancialservices-93d3a2",
      "locationSet": {"include": ["us"]},
      "matchNames": ["cu cooperative systems"],
      "tags": {
        "amenity": "atm",
        "brand": "CO-OP Financial Services",
        "brand:wikidata": "Q5013238",
        "name": "CO-OP Financial Services"
      }
    },
    {
      "displayName": "CoinFlip",
      "id": "coinflip-93d3a2",
      "locationSet": {"include": ["us"]},
      "tags": {
        "amenity": "atm",
        "brand": "CoinFlip",
        "brand:wikidata": "Q109850256",
        "name": "CoinFlip"
      }
    },
    {
      "displayName": "Coinsource",
      "id": "coinsource-93d3a2",
      "locationSet": {"include": ["us"]},
      "tags": {
        "amenity": "atm",
        "brand": "Coinsource",
        "brand:wikidata": "Q109850339",
        "name": "Coinsource"
      }
    },
    {
      "displayName": "Euronet",
      "id": "euronet-d5d850",
      "locationSet": {
        "include": ["001"],
        "exclude": ["cn"]
      },
      "tags": {
        "amenity": "atm",
        "brand": "Euronet",
        "brand:wikidata": "Q5412010",
        "name": "Euronet",
        "operator": "Euronet",
        "operator:wikidata": "Q5412010"
      }
    },
    {
      "displayName": "Geldmaat",
      "id": "geldmaat-5333ab",
      "locationSet": {"include": ["nl"]},
      "tags": {
        "amenity": "atm",
        "brand": "Geldmaat",
        "brand:wikidata": "Q74051230",
        "name": "Geldmaat",
        "operator": "Geldmaat",
        "operator:wikidata": "Q74051230"
      }
    },
    {
      "displayName": "LibertyX",
      "id": "libertyx-93d3a2",
      "locationSet": {"include": ["us"]},
      "tags": {
        "amenity": "atm",
        "brand": "LibertyX",
        "brand:wikidata": "Q109287417",
        "name": "LibertyX"
      }
    },
    {
      "displayName": "MEPS",
      "id": "meps-bc168a",
      "locationSet": {"include": ["my"]},
      "tags": {
        "amenity": "atm",
        "brand": "MEPS",
        "brand:wikidata": "Q6741957",
        "name": "MEPS",
        "operator": "MEPS",
        "operator:wikidata": "Q6741957"
      }
    },
    {
      "displayName": "NoteMachine",
      "id": "notemachine-396707",
      "locationSet": {"include": ["gb"]},
      "tags": {
        "amenity": "atm",
        "brand": "NoteMachine",
        "brand:wikidata": "Q104368525",
        "name": "NoteMachine",
        "operator": "NoteMachine",
        "operator:wikidata": "Q104368525",
        "short_name": "NMATM"
      }
    },
    {
      "displayName": "Postamat",
      "id": "postamat-64483a",
      "locationSet": {"include": ["it"]},
      "tags": {
        "amenity": "atm",
        "brand": "Postamat",
        "brand:wikidata": "Q3909447",
        "name": "Postamat",
        "operator": "Poste Italiane",
        "operator:wikidata": "Q495026"
      }
    },
    {
      "displayName": "Sainsbury's Bank",
      "id": "sainsburysbank-396707",
      "locationSet": {"include": ["gb"]},
      "tags": {
        "amenity": "atm",
        "brand": "Sainsbury's Bank",
        "brand:wikidata": "Q7400525",
        "operator": "Sainsbury's Bank",
        "operator:wikidata": "Q7400525"
      }
    },
    {
      "displayName": "Тинькофф Банк",
      "id": "tinkoffbank-da35c8",
      "locationSet": {"include": ["ru"]},
      "tags": {
        "alt_name:ru": "Тинькофф",
        "amenity": "atm",
        "brand": "Тинькофф Банк",
        "brand:en": "Tinkoff Bank",
        "brand:fa": "بانک تینکوف",
        "brand:he": "בנק טינקוף",
        "brand:ru": "Тинькофф Банк",
        "brand:wikidata": "Q4457878",
        "name": "Тинькофф Банк",
        "name:en": "Tinkoff Bank",
        "name:he": "בנק טינקוף",
        "name:ru": "Тинькофф Банк"
      }
    },
    {
        "displayName": "高雄銀行",
        "id": "bankofkaohsiung-9a6797",
        "locationSet": {"include": ["tw"]},
        "tags": {
          "amenity":"atm",
          "brand":"高雄銀行",
          "brand:en":"Bank of Kaohsiung",
          "brand:wikidata":"Q11673248",
          "brand:zh":"高雄銀行",
          "name":"高雄銀行",
          "name:en":"Bank of Kaohsiung",
          "name:nan":"Ko-hiông Gîn-hâng",
          "name:nan-HJ": "高雄銀行",
          "name:nan-POJ":"Ko-hiông Gîn-hâng",
          "name:nan-TL":"Ko-hiông Gîn-hâng",
          "name:zh":"高雄銀行",
          "operator":"高雄銀行",         
          "operator:wikidata":"Q11673248"
          },
        "matchNames":"bok,高銀,高雄市銀行,高雄銀"
      },
      {
          "displayName": "集友銀行 Chiyu Banking Corporation",
          "id": "chiyubankingcorporation-e57d9a",
          "locationSet": {"include": ["hk"]},
          "tags": {
            "amenity":"atm",
            "brand":"集友銀行 Chiyu Banking Corporation",
            "brand:en":"Chiyu Banking Corporation",
            "brand:wikidata":"Q877121",
            "brand:zh":"集友銀行",
            "name":"集友銀行 Chiyu Banking Corporation",
            "name:en":"Chiyu Banking Corporation",
            "name:zh":"集友銀行",
            "name:zh-Hans":"集友银行",
            "name:zh-Hant":"集友銀行",
            "operator":"集友銀行 Chiyu Banking Corporation",         
            "operator:wikidata":"Q877121"
          }
        },
        {
            "displayName": "陽信商業銀行",
            "id": "sunnycommercialbank-9a6797",
            "locationSet": {"include": ["tw"]},
            "tags": {
              "amenity":"atm",
              "brand":"陽信商業銀行",
              "brand:en":"Sunny Commercial Bank",
              "brand:wikidata":"Q11658759",
              "brand:zh":"陽信商業銀行",
              "name":"陽信商業銀行",
              "name:en":"Sunny Commercial Bank",
              "name:nan":"Iông-sìn Siong-gia̍p Gîn-hâng",
              "name:nan-HJ": "陽信商業銀行",
              "name:nan-POJ":"Iông-sìn Siong-gia̍p Gîn-hâng",
              "name:nan-TL":"Iông-sìn Siong-gia̍p Gîn-hâng",
              "name:zh":"陽信商業銀行",
              "operator":"陽信商業銀行",         
              "operator:wikidata":"Q11658759"
              },
              "matchNames":"sunny bank,陽信商銀,陽信銀行"
    }
  ]
}